OBJECT_NAME,OBJECT_ID,EPOCH,MEAN_MOTION,ECCENTRICITY,INCLINATION,RA_OF_ASC_NODE,ARG_OF_PERICENTER,MEAN_ANOMALY,EPHEMERIS_TYPE,CLASSIFICATION_TYPE,NORAD_CAT_ID,ELEMENT_SET_NO,REV_AT_EPOCH,BSTAR,MEAN_MOTION_DOT,MEAN_MOTION_DDOT
LEMUR-2-STARLIGHT,2025-276DY,2026-06-20T04:10:16.094496,14.99066550,.00150131,97.5248,241.7106,119.5620,240.7102,0,U,66783,999,3064,.36990223E-3,.4443E-4,0
LEMUR-2-TARTIFLETTE,2025-276DZ,2026-06-20T04:07:59.913408,14.99091455,.00139781,97.5254,241.7165,126.1842,234.0677,0,U,66784,999,3064,.31841196E-3,.3818E-4,0
LEMUR-2-VUKASIN,2025-276EA,2026-06-20T10:19:16.982688,15.00395056,.0005982,97.5296,242.2698,116.6937,243.4900,0,U,66785,999,3063,.35004E-3,.4342E-4,0
LEMUR-2-HOTSPUR-TOM,2025-276EB,2026-06-20T10:22:06.154752,14.98989877,.0015291,97.5255,241.9484,117.8643,242.4132,0,U,66786,999,3061,.36879E-3,.4421E-4,0
LEMUR-2-MYRA,2025-276EC,2026-06-20T11:04:58.736352,15.00287146,.0017007,97.5211,242.2354,130.6870,229.5835,0,U,66787,999,3070,.54484E-3,.6792E-4,0
LEMUR-2 FIKRETDENGIZ,2026-004A,2026-06-20T05:26:46.623264,14.88343365,.0010294,97.8021,169.7379,124.3644,235.8548,0,U,67363,999,2373,.33576E-3,.3056E-4,0
TWILIGHT-1 OBJECT B,2026-004B,2026-06-20T10:54:23.626368,14.87711720,.0010138,97.8061,169.9759,115.1340,245.0929,0,U,67364,999,2377,.15449E-3,.1354E-4,0
LEMUR-2-MARIO-SOUSA,2026-004C,2026-06-20T09:53:01.724928,14.88535674,.0009897,97.7992,169.9163,124.4751,235.7402,0,U,67365,999,2377,.41527E-3,.3811E-4,0
LEMUR-2-SONNENBLUME,2026-004E,2026-06-19T22:33:39.309120,14.88327278,.00093507,97.7982,169.4351,127.3528,232.8541,0,U,67367,999,2370,.27372005E-3,.248E-4,0
LEMUR-2-WOBLER,2026-004F,2026-06-19T22:23:44.238624,14.88531579,.00097806,97.8039,169.5534,118.2058,242.0148,0,U,67368,999,2370,.34161715E-3,.3125E-4,0
LEMUR-2-GRAM-E-SUE,2026-004H,2026-06-19T22:10:23.778912,14.88480894,.00083475,97.7974,169.4345,128.0284,232.1687,0,U,67370,999,2370,.19675931E-3,.1774E-4,0
LEMUR-2-KATIE,2026-004AA,2026-06-20T10:41:29.552352,14.90064314,.0004814,97.8036,170.4179,86.4062,273.7706,0,U,67387,999,2379,.24079E-3,.2271E-4,0
LEMUR-2-HCS-BAZUS,2026-004AB,2026-06-20T10:40:03.238752,14.90096352,.0004303,97.8026,170.3977,83.5932,276.5776,0,U,67388,999,2379,.40227E-3,.3834E-4,0
