LEMUR-2-STARLIGHT       
1 66783U 25276DY  26171.17379739  .00004443  00000+0  36990-3 0  9999
2 66783  97.5248 241.7106 0015013 119.5620 240.7102 14.99066550 30646
LEMUR-2-TARTIFLETTE     
1 66784U 25276DZ  26171.17222122  .00003818  00000+0  31841-3 0  9998
2 66784  97.5254 241.7165 0013978 126.1842 234.0677 14.99091455 30642
LEMUR-2-VUKASIN         
1 66785U 25276EA  26171.43005767  .00004342  00000+0  35004-3 0  9990
2 66785  97.5296 242.2698 0005982 116.6937 243.4900 15.00395056 30630
LEMUR-2-HOTSPUR-TOM     
1 66786U 25276EB  26171.43201568  .00004421  00000+0  36879-3 0  9997
2 66786  97.5255 241.9484 0015291 117.8643 242.4132 14.98989877 30616
LEMUR-2-MYRA            
1 66787U 25276EC  26171.46179093  .00006792  00000+0  54484-3 0  9993
2 66787  97.5211 242.2354 0017007 130.6870 229.5835 15.00287146 30701
LEMUR-2 FIKRETDENGIZ    
1 67363U 26004A   26171.22692851  .00003056  00000+0  33576-3 0  9999
2 67363  97.8021 169.7379 0010294 124.3644 235.8548 14.88343365 23731
TWILIGHT-1 OBJECT B     
1 67364U 26004B   26171.45444012  .00001354  00000+0  15449-3 0  9997
2 67364  97.8061 169.9759 0010138 115.1340 245.0929 14.87711720 23771
LEMUR-2-MARIO-SOUSA     
1 67365U 26004C   26171.41182552  .00003811  00000+0  41527-3 0  9998
2 67365  97.7992 169.9163 0009897 124.4751 235.7402 14.88535674 23777
LEMUR-2-SONNENBLUME     
1 67367U 26004E   26170.94003830  .00002480  00000+0  27372-3 0  9991
2 67367  97.7982 169.4351 0009350 127.3528 232.8541 14.88327278 23704
LEMUR-2-WOBLER          
1 67368U 26004F   26170.93315091  .00003125  00000+0  34162-3 0  9998
2 67368  97.8039 169.5534 0009780 118.2058 242.0148 14.88531579 23704
LEMUR-2-GRAM-E-SUE      
1 67370U 26004H   26170.92388633  .00001774  00000+0  19676-3 0  9993
2 67370  97.7974 169.4345 0008347 128.0284 232.1687 14.88480894 23702
LEMUR-2-KATIE           
1 67387U 26004AA  26171.44548093  .00002271  00000+0  24079-3 0  9993
2 67387  97.8036 170.4179 0004814  86.4062 273.7706 14.90064314 23793
LEMUR-2-HCS-BAZUS       
1 67388U 26004AB  26171.44448193  .00003834  00000+0  40227-3 0  9993
2 67388  97.8026 170.3977 0004303  83.5932 276.5776 14.90096352 23790
